[{"OBJECT_NAME":"SEEDS II (CO-66)","OBJECT_ID":"2008-021J","EPOCH":"2026-03-09T22:06:22.421376","MEAN_MOTION":15.29097236,"ECCENTRICITY":0.00014475,"INCLINATION":97.7519,"RA_OF_ASC_NODE":62.3611,"ARG_OF_PERICENTER":359.2618,"MEAN_ANOMALY":0.8619,"EPHEMERIS_TYPE":0,"CLASSIFICATION_TYPE":"U","NORAD_CAT_ID":32791,"ELEMENT_SET_NO":999,"REV_AT_EPOCH":97210,"BSTAR":0.00084213052,"MEAN_MOTION_DOT":0.00023758,"MEAN_MOTION_DDOT":0},{"OBJECT_NAME":"STARLINK-31949","OBJECT_ID":"2024-100G","EPOCH":"2026-03-09T04:57:48.273408","MEAN_MOTION":15.27593382,"ECCENTRICITY":0.00014789,"INCLINATION":42.9998,"RA_OF_ASC_NODE":128.0653,"ARG_OF_PERICENTER":116.9776,"MEAN_ANOMALY":243.1227,"EPHEMERIS_TYPE":0,"CLASSIFICATION_TYPE":"U","NORAD_CAT_ID":59891,"ELEMENT_SET_NO":999,"REV_AT_EPOCH":10098,"BSTAR":-0.00019194479,"MEAN_MOTION_DOT":-5.542e-5,"MEAN_MOTION_DDOT":0}]
